{"spkid": "20099248", "covariance": {"labels": ["e", "q", "tp", "node", "peri", "i"], "elements": [{"label": "e", "value": ".5073662788236969", "title": "eccentricity", "units": null, "name": "e", "sigma": 1.85378318496722e-08}, {"value": ".9196103791263416", "title": "perihelion distance", "units": "au", "name": "q", "sigma": 3.47850909418549e-08, "label": "q"}, {"title": "time of perihelion passage", "value": "2458738.012548717218", "units": "TDB", "name": "tp", "sigma": 6.48479093855108e-06, "label": "tp"}, {"name": "om", "sigma": 1.56629997411356e-05, "title": "longitude of the ascending node", "value": "284.1561276883245", "units": "deg", "label": "node"}, {"label": "peri", "units": "deg", "value": "61.49216169420625", "title": "argument of perihelion", "sigma": 1.63497801627709e-05, "name": "w"}, {"units": "deg", "title": "inclination", "value": "10.61277242703244", "sigma": 3.32499872211528e-06, "name": "i", "label": "i"}], "data": [["3.436512096867202E-16", "-6.436507086294904E-16", "3.427231957013351E-14", "-4.404607951400603E-14", "4.449522273766375E-14", "7.154282717934952E-15"], ["-6.436507086294904E-16", "1.210002551833116E-15", "-6.738935294155906E-14", "8.551431125323757E-14", "-8.755495218289969E-14", "-1.317663683243752E-14"], ["3.427231957013351E-14", "-6.738935294155906E-14", "4.205251351671421E-11", "-2.503525127628232E-11", "4.520814446969328E-11", "1.690201220991841E-13"], ["-4.404607951400603E-14", "8.551431125323757E-14", "-2.503525127628232E-11", "2.453295608908145E-10", "-2.484561801806638E-10", "-1.553761093987268E-11"], ["4.449522273766375E-14", "-8.755495218289969E-14", "4.520814446969328E-11", "-2.484561801806638E-10", "2.673153113709357E-10", "1.497684424939427E-11"], ["7.154282717934952E-15", "-1.317663683243752E-14", "1.690201220991841E-13", "-1.553761093987268E-11", "1.497684424939427E-11", "1.105561650206825E-11"]], "epoch": "2458784.5"}, "elements": [{"label": "e", "units": null, "title": "eccentricity", "value": ".5078642897514218", "sigma": "1.8521E-8", "name": "e"}, {"label": "a", "units": "au", "title": "semi-major axis", "value": "1.866259181314673", "name": "a", "sigma": "4.239E-9"}, {"label": "q", "units": "au", "title": "perihelion distance", "value": ".9184527877042267", "name": "q", "sigma": "3.476E-8"}, {"units": "deg", "title": "inclination; angle with respect to x-y ecliptic plane", "value": "10.6114826048348", "sigma": "3.3244E-6", "name": "i", "label": "i"}, {"label": "node", "name": "om", "sigma": "1.5674E-5", "units": "deg", "title": "longitude of the ascending node", "value": "284.1074031393326"}, {"sigma": "1.6358E-5", "name": "w", "units": "deg", "value": "61.54417415901929", "title": "argument of perihelion", "label": "peri"}, {"label": "M", "sigma": "3.5722E-6", "name": "ma", "units": "deg", "title": "mean anomaly", "value": "231.6816481261448"}, {"title": "time of perihelion passage", "value": "2461532.427041427675", "units": "TDB", "name": "tp", "sigma": "1.0102E-5", "label": "tp"}, {"sigma": "3.1728E-6", "name": "per", "title": "sidereal orbital period", "value": "931.2287226961323", "units": "d", "label": "period"}, {"name": "n", "sigma": "1.3171E-9", "value": ".386586013968419", "title": "mean motion", "units": "deg/d", "label": "n"}, {"label": "Q", "sigma": "6.3919E-9", "name": "ad", "units": "au", "title": "aphelion distance", "value": "2.81406557492512"}], "epoch": "2461200.5"}